      2.10          N: GNSS NAV DATA                        RINEX VERSION / TYPE
fic2rin                                 12/15/2022 00:17:50 PGM / RUN BY / DATE
                                                            END OF HEADER
2  22 12 14  1 59 28.0 -.633142888546D-03  .204636307899D-11  .000000000000D+00
     .390000000000D+02  .387500000000D+02  .464269338681D-08 -.726700225638D+00
     .211410224438D-05  .200873432914D-01  .436045229435D-05  .515369104385D+04
     .266368000000D+06 -.244006514549D-06 -.110574431880D+01  .260770320892D-07
     .966772081046D+00  .303968750000D+03 -.135374130762D+01 -.859000066515D-08
     .182864759908D-09  .100000000000D+01  .224000000000D+04  .000000000000D+00
     .240000000000D+01  .000000000000D+00 -.176951289177D-07  .390000000000D+02
     .259200000000D+06  .400000000000D+01
25 22 12 14 14  0  0.0  .401965342462D-03  .352429196937D-11  .000000000000D+00
     .330000000000D+02  .132812500000D+02  .481091467962D-08 -.123282888132D+01
     .739470124245D-06  .109395898180D-01  .687502324581D-05  .515357153702D+04
     .309600000000D+06  .221654772758D-06 -.313068503106D+01  .219792127609D-06
     .954965615317D+00  .242750000000D+03  .100855157018D+01 -.812105256015D-08
    -.356800576462D-09  .100000000000D+01  .224000000000D+04  .000000000000D+00
     .240000000000D+01  .000000000000D+00  .558793544769D-08  .330000000000D+02
     .302400000000D+06  .400000000000D+01
22 22 12 14 14  0  0.0  .384575221688D-03  .784439180279D-11  .000000000000D+00
     .360000000000D+02 -.643125000000D+02  .435732435719D-08  .223577237991D+01
    -.338628888130D-05  .136080126977D-01  .100918114185D-04  .515376683426D+04
     .309600000000D+06  .139698386192D-06  .115073962518D+01 -.221654772758D-06
     .961808486315D+00  .182187500000D+03 -.184168251955D+01 -.766496213358D-08
     .164649715464D-09  .100000000000D+01  .224000000000D+04  .000000000000D+00
     .240000000000D+01  .000000000000D+00 -.838190317154D-08  .360000000000D+02
     .302400000000D+06  .400000000000D+01
26 22 12 14 14  0  0.0  .238368287683D-03  .795807864051D-12  .000000000000D+00
     .890000000000D+02  .978125000000D+01  .522414617809D-08 -.200972197694D+01
     .419095158577D-06  .762064405717D-02  .679865479469D-05  .515360140228D+04
     .309600000000D+06  .149011611938D-07  .309991693363D+01 -.763684511185D-07
     .935742416788D+00  .235906250000D+03  .412057516764D+00 -.827820196320D-08
    -.199294015681D-09  .100000000000D+01  .224000000000D+04  .000000000000D+00
     .240000000000D+01  .000000000000D+00  .698491930962D-08  .890000000000D+02
     .302400000000D+06  .400000000000D+01
14 22 12 14 14  0  0.0 -.682417303324D-04  .636646291241D-11  .000000000000D+00
     .205000000000D+03  .160625000000D+02  .482841540860D-08 -.111909212526D+01
     .795349478722D-06  .246176146902D-02  .701658427715D-05  .515365527916D+04
     .309600000000D+06  .223517417908D-07 -.308640014843D+01 -.102445483208D-06
     .950743733218D+00  .241968750000D+03 -.305680655185D+01 -.811998108695D-08
    -.305369862738D-09  .100000000000D+01  .224000000000D+04  .000000000000D+00
     .240000000000D+01  .000000000000D+00 -.791624188423D-08  .205000000000D+03
     .302400000000D+06  .400000000000D+01
18 22 12 14 14  0  0.0 -.588055700064D-04 -.146656020661D-10  .000000000000D+00
     .360000000000D+02  .439375000000D+02  .425553440295D-08  .391542677141D+00
     .228360295296D-05  .296421383973D-02  .440888106823D-05  .515370913124D+04
     .309600000000D+06  .968575477600D-07 -.100722838418D+01  .260770320892D-07
     .972906757792D+00  .300531250000D+03 -.311316010780D+01 -.814676791701D-08
     .196079596074D-09  .100000000000D+01  .224000000000D+04  .000000000000D+00
     .240000000000D+01  .000000000000D+00 -.838190317154D-08  .548000000000D+03
     .302400000000D+06  .400000000000D+01
23 22 12 14 14  0  0.0  .842846930027D-07  .682121026330D-12  .000000000000D+00
     .920000000000D+02 -.685312500000D+02  .439268297288D-08 -.592547321334D+00
    -.354088842869D-05  .291954353452D-02  .481493771076D-05  .515364092255D+04
     .309600000000D+06  .558793544769D-08 -.779115644151D-02 -.186264514923D-07
     .971831711960D+00  .291875000000D+03  .311204008601D+01 -.813605318499D-08
    -.714315468392D-12  .100000000000D+01  .224000000000D+04  .000000000000D+00
     .240000000000D+01  .000000000000D+00 -.838190317154D-08  .860000000000D+03
     .302400000000D+06  .400000000000D+01
20 22 12 14 14  0  0.0  .463637989014D-03 -.250111042988D-11  .000000000000D+00
     .610000000000D+02 -.454687500000D+02  .494734893408D-08  .124141891977D+01
    -.248476862907D-05  .467626797035D-02  .425800681114D-05  .515370627785D+04
     .309600000000D+06  .111758708954D-07 -.142596372991D+00  .521540641785D-07
     .946402753496D+00  .290062500000D+03 -.299283974347D+01 -.841642200633D-08
    -.267868300647D-10  .100000000000D+01  .224000000000D+04  .000000000000D+00
     .485000000000D+01  .000000000000D+00 -.838190317154D-08  .610000000000D+02
     .302400000000D+06  .400000000000D+01
1  22 12 14 16  0  0.0  .237821601331D-03 -.522959453519D-11  .000000000000D+00
     .270000000000D+02  .467812500000D+02  .393837833498D-08  .129769491765D+01
     .233575701714D-05  .121020257939D-01  .520423054695D-05  .515365655518D+04
     .316800000000D+06 -.158324837685D-06 -.101066997064D+01  .577419996262D-07
     .989039831536D+00  .295062500000D+03  .938765607219D+00 -.810283751571D-08
     .112147528538D-09  .100000000000D+01  .224000000000D+04  .000000000000D+00
     .240000000000D+01  .000000000000D+00  .465661287308D-08  .270000000000D+02
     .309600000000D+06  .400000000000D+01
5  22 12 14 16  0  0.0 -.108051579446D-03 -.147792889038D-11  .000000000000D+00
     .420000000000D+02 -.581250000000D+02  .447625788268D-08 -.244138027871D+01
    -.317767262459D-05  .584353040904D-02  .456720590591D-05  .515358162689D+04
     .316800000000D+06  .100582838058D-06 -.231791455273D-01 -.111758708954D-07
     .963979705441D+00  .288968750000D+03  .113929257062D+01 -.809819446516D-08
     .850035407387D-10  .100000000000D+01  .224000000000D+04  .000000000000D+00
     .240000000000D+01  .000000000000D+00 -.111758708954D-07  .420000000000D+02
     .309600000000D+06  .400000000000D+01
3  22 12 14 16  0  0.0 -.375238712877D-03  .113686837722D-12  .000000000000D+00
     .420000000000D+02 -.658437500000D+02  .431089385175D-08  .163042963097D+00
    -.355765223503D-05  .442759681027D-02  .496953725815D-05  .515375873756D+04
     .316800000000D+06 -.316649675369D-07  .212064546254D-01  .109896063805D-06
     .976956847957D+00  .296125000000D+03  .104197986564D+01 -.814962517889D-08
     .392873507616D-11  .100000000000D+01  .224000000000D+04  .000000000000D+00
     .240000000000D+01  .000000000000D+00  .186264514923D-08  .420000000000D+02
     .309600000000D+06  .400000000000D+01
2  22 12 14 16  0  0.0 -.633041840047D-03  .204636307899D-11  .000000000000D+00
     .580000000000D+02  .350625000000D+02  .445697136503D-08  .345706893611D+00
     .182911753654D-05  .200882888166D-01  .560656189919D-05  .515369346619D+04
     .316800000000D+06 -.219792127609D-06 -.110615883664D+01 -.199303030968D-06
     .966780740058D+00  .278781250000D+03 -.135349278124D+01 -.850249702027D-08
     .692886004340D-10  .100000000000D+01  .224000000000D+04  .000000000000D+00
     .240000000000D+01  .000000000000D+00 -.176951289177D-07  .580000000000D+02
     .309600000000D+06  .400000000000D+01
8  22 12 14 16  0  0.0 -.986233353615D-04 -.181898940355D-11  .000000000000D+00
     .340000000000D+02  .563125000000D+02  .426374903083D-08 -.272135931924D+01
     .286474823952D-05  .795988633763D-02  .907108187675D-05  .515363488197D+04
     .316800000000D+06 -.800937414169D-07 -.209830629678D+01 -.782310962677D-07
     .960980704361D+00  .206750000000D+03  .175878375183D+00 -.786532762247D-08
    -.189293599124D-09  .100000000000D+01  .224000000000D+04  .000000000000D+00
     .340000000000D+01  .000000000000D+00  .512227416039D-08  .340000000000D+02
     .309600000000D+06  .400000000000D+01
6  22 12 14 16  0  0.0  .539995264262D-03  .773070496507D-11  .000000000000D+00
     .230000000000D+02  .325625000000D+02  .382515933324D-08  .158470010357D+01
     .174343585968D-05  .275887188036D-02  .518560409546D-05  .515357494164D+04
     .316800000000D+06  .260770320892D-07 -.101896310109D+01 -.186264514923D-07
     .988309989021D+00  .290843750000D+03 -.909963736054D+00 -.786425614926D-08
     .152149194768D-09  .100000000000D+01  .224000000000D+04  .000000000000D+00
     .240000000000D+01  .000000000000D+00  .372529029846D-08  .230000000000D+02
     .309600000000D+06  .400000000000D+01
7  22 12 14 16  0  0.0  .274456571788D-03 -.545696821064D-11  .000000000000D+00
     .610000000000D+02  .141875000000D+02  .507628287613D-08  .683728247615D+00
     .959262251854D-06  .165076835547D-01  .805221498013D-05  .515360802650D+04
     .316800000000D+06 -.111758708954D-06  .211882132804D+01  .126659870148D-06
     .950217245094D+00  .221718750000D+03 -.223436214151D+01 -.846142388084D-08
     .492877673191D-10  .100000000000D+01  .224000000000D+04  .000000000000D+00
     .240000000000D+01  .000000000000D+00 -.111758708954D-07  .610000000000D+02
     .309600000000D+06  .400000000000D+01
4  22 12 14 16  0  0.0 -.686291605234D-04  .716227077646D-11  .000000000000D+00
     .176000000000D+03 -.606562500000D+02  .447018620120D-08 -.310725795749D+01
    -.301375985146D-05  .221177923959D-02  .995397567749D-05  .515373295212D+04
     .316800000000D+06 -.130385160446D-07  .110221729939D+01 -.186264514923D-07
     .961867844217D+00  .190125000000D+03 -.311090977260D+01 -.788068540504D-08
     .192508018732D-09  .100000000000D+01  .224000000000D+04  .000000000000D+00
     .240000000000D+01  .000000000000D+00 -.465661287308D-08  .688000000000D+03
     .309600000000D+06  .400000000000D+01
